{
    "links": {
        "self": "http://www.neowsapp.com/rest/v1/neo/3989199?api_key=iIulBulltgU6a56xZRHN4H3l9WmuAYTsLGpBGhQ2"
    },
    "id": "3989199",
    "neo_reference_id": "3989199",
    "name": "(2020 BV8)",
    "designation": "2020 BV8",
    "nasa_jpl_url": "http://ssd.jpl.nasa.gov/sbdb.cgi?sstr=3989199",
    "absolute_magnitude_h": 27.029,
    "estimated_diameter": {
        "kilometers": {
            "estimated_diameter_min": 0.0104413097,
            "estimated_diameter_max": 0.0233474782
        },
        "meters": {
            "estimated_diameter_min": 10.4413096767,
            "estimated_diameter_max": 23.3474782113
        },
        "miles": {
            "estimated_diameter_min": 0.006487927,
            "estimated_diameter_max": 0.0145074459
        },
        "feet": {
            "estimated_diameter_min": 34.2562664398,
            "estimated_diameter_max": 76.5993404147
        }
    },
    "is_potentially_hazardous_asteroid": false,
    "close_approach_data": [
        {
            "close_approach_date": "2020-01-22",
            "close_approach_date_full": "2020-Jan-22 10:13",
            "epoch_date_close_approach": 1579687980000,
            "relative_velocity": {
                "kilometers_per_second": "3.5276064488",
                "kilometers_per_hour": "12699.3832157646",
                "miles_per_hour": "7890.9028653733"
            },
            "miss_distance": {
                "astronomical": "0.0756169154",
                "lunar": "29.4149800906",
                "kilometers": "11312129.479810198",
                "miles": "7029031.3182408124"
            },
            "orbiting_body": "Earth"
        }
    ],
    "orbital_data": {
        "orbit_id": "3",
        "orbit_determination_date": "2020-01-27 05:39:18",
        "first_observation_date": "2020-01-25",
        "last_observation_date": "2020-01-26",
        "data_arc_in_days": 1,
        "observations_used": 17,
        "orbit_uncertainty": "8",
        "minimum_orbit_intersection": ".0750681",
        "jupiter_tisserand_invariant": "4.225",
        "epoch_osculation": "2458874.5",
        "eccentricity": ".3536797015004499",
        "semi_major_axis": "1.638373170698027",
        "inclination": "1.532804576786096",
        "ascending_node_longitude": "128.5272749967557",
        "orbital_period": "765.980419707646",
        "perihelion_distance": "1.058913836739203",
        "perihelion_argument": "350.3747304201276",
        "aphelion_distance": "2.217832504656851",
        "perihelion_time": "2458868.882059800729",
        "mean_anomaly": "2.640352703153271",
        "mean_motion": ".4699859039966091",
        "equinox": "J2000",
        "orbit_class": {
            "orbit_class_type": "AMO",
            "orbit_class_description": "Near-Earth asteroid orbits similar to that of 1221 Amor",
            "orbit_class_range": "1.017 AU < q (perihelion) < 1.3 AU"
        }
    },
    "is_sentry_object": false
}